CCSDS_OMM_VERS = 2.0
CREATION_DATE  = 
ORIGINATOR     = 

OBJECT_NAME    = TWILIGHT AF
OBJECT_ID      = 2026-004AF
CENTER_NAME    = EARTH
REF_FRAME      = TEME
TIME_SYSTEM    = UTC
MEAN_ELEMENT_THEORY = SGP/SGP4

EPOCH          = 2026-01-24T22:27:51.610464
MEAN_MOTION    = 15.17551314
ECCENTRICITY   = .00073963
INCLINATION    = 97.4499
RA_OF_ASC_NODE = 26.0865
ARG_OF_PERICENTER = 105.4445
MEAN_ANOMALY   = 254.7606

EPHEMERIS_TYPE = 0
CLASSIFICATION_TYPE = U
NORAD_CAT_ID   = 67392
ELEMENT_SET_NO = 999
REV_AT_EPOCH   = 202
BSTAR          = .79351511E-3
MEAN_MOTION_DOT = .15894E-3
MEAN_MOTION_DDOT = 0

CCSDS_OMM_VERS = 2.0
CREATION_DATE  = 
ORIGINATOR     = 

OBJECT_NAME    = TWILIGHT AG
OBJECT_ID      = 2026-004AG
CENTER_NAME    = EARTH
REF_FRAME      = TEME
TIME_SYSTEM    = UTC
MEAN_ELEMENT_THEORY = SGP/SGP4

EPOCH          = 2026-01-24T17:41:33.794016
MEAN_MOTION    = 15.17706881
ECCENTRICITY   = .0007477
INCLINATION    = 97.4527
RA_OF_ASC_NODE = 25.8996
ARG_OF_PERICENTER = 110.9682
MEAN_ANOMALY   = 249.2353

EPHEMERIS_TYPE = 0
CLASSIFICATION_TYPE = U
NORAD_CAT_ID   = 67393
ELEMENT_SET_NO = 999
REV_AT_EPOCH   = 199
BSTAR          = .86616223E-3
MEAN_MOTION_DOT = .17436E-3
MEAN_MOTION_DDOT = 0

CCSDS_OMM_VERS = 2.0
CREATION_DATE  = 
ORIGINATOR     = 

OBJECT_NAME    = TWILIGHT AH
OBJECT_ID      = 2026-004AH
CENTER_NAME    = EARTH
REF_FRAME      = TEME
TIME_SYSTEM    = UTC
MEAN_ELEMENT_THEORY = SGP/SGP4

EPOCH          = 2026-01-24T22:18:01.623744
MEAN_MOTION    = 15.18144200
ECCENTRICITY   = .00107244
INCLINATION    = 97.4467
RA_OF_ASC_NODE = 26.0900
ARG_OF_PERICENTER = 111.6731
MEAN_ANOMALY   = 248.5646

EPHEMERIS_TYPE = 0
CLASSIFICATION_TYPE = U
NORAD_CAT_ID   = 67394
ELEMENT_SET_NO = 999
REV_AT_EPOCH   = 202
BSTAR          = .39219549E-3
MEAN_MOTION_DOT = .7954E-4
MEAN_MOTION_DDOT = 0

CCSDS_OMM_VERS = 2.0
CREATION_DATE  = 
ORIGINATOR     = 

OBJECT_NAME    = TWILIGHT AJ
OBJECT_ID      = 2026-004AJ
CENTER_NAME    = EARTH
REF_FRAME      = TEME
TIME_SYSTEM    = UTC
MEAN_ELEMENT_THEORY = SGP/SGP4

EPOCH          = 2026-01-24T22:19:51.120192
MEAN_MOTION    = 14.87767714
ECCENTRICITY   = .00040409
INCLINATION    = 97.8005
RA_OF_ASC_NODE = 25.8766
ARG_OF_PERICENTER = 230.9385
MEAN_ANOMALY   = 129.1472

EPHEMERIS_TYPE = 0
CLASSIFICATION_TYPE = U
NORAD_CAT_ID   = 67395
ELEMENT_SET_NO = 999
REV_AT_EPOCH   = 197
BSTAR          = .43547203E-3
MEAN_MOTION_DOT = .3921E-4
MEAN_MOTION_DDOT = 0

CCSDS_OMM_VERS = 2.0
CREATION_DATE  = 
ORIGINATOR     = 

OBJECT_NAME    = TWILIGHT AK
OBJECT_ID      = 2026-004AK
CENTER_NAME    = EARTH
REF_FRAME      = TEME
TIME_SYSTEM    = UTC
MEAN_ELEMENT_THEORY = SGP/SGP4

EPOCH          = 2026-01-24T22:23:08.686752
MEAN_MOTION    = 15.17757550
ECCENTRICITY   = .00088158
INCLINATION    = 97.4504
RA_OF_ASC_NODE = 26.0923
ARG_OF_PERICENTER = 111.0877
MEAN_ANOMALY   = 249.1300

EPHEMERIS_TYPE = 0
CLASSIFICATION_TYPE = U
NORAD_CAT_ID   = 67396
ELEMENT_SET_NO = 999
REV_AT_EPOCH   = 202
BSTAR          = .41109451E-3
MEAN_MOTION_DOT = .8245E-4
MEAN_MOTION_DDOT = 0

CCSDS_OMM_VERS = 2.0
CREATION_DATE  = 
ORIGINATOR     = 

OBJECT_NAME    = TWILIGHT AL
OBJECT_ID      = 2026-004AL
CENTER_NAME    = EARTH
REF_FRAME      = TEME
TIME_SYSTEM    = UTC
MEAN_ELEMENT_THEORY = SGP/SGP4

EPOCH          = 2026-01-24T22:25:35.088960
MEAN_MOTION    = 15.17603415
ECCENTRICITY   = .00077519
INCLINATION    = 97.4526
RA_OF_ASC_NODE = 26.0942
ARG_OF_PERICENTER = 111.5147
MEAN_ANOMALY   = 248.6913

EPHEMERIS_TYPE = 0
CLASSIFICATION_TYPE = U
NORAD_CAT_ID   = 67397
ELEMENT_SET_NO = 999
REV_AT_EPOCH   = 202
BSTAR          = .65306331E-3
MEAN_MOTION_DOT = .13084E-3
MEAN_MOTION_DDOT = 0

CCSDS_OMM_VERS = 2.0
CREATION_DATE  = 
ORIGINATOR     = 

OBJECT_NAME    = TWILIGHT AM
OBJECT_ID      = 2026-004AM
CENTER_NAME    = EARTH
REF_FRAME      = TEME
TIME_SYSTEM    = UTC
MEAN_ELEMENT_THEORY = SGP/SGP4

EPOCH          = 2026-01-24T20:47:38.631840
MEAN_MOTION    = 15.17818589
ECCENTRICITY   = .00085742
INCLINATION    = 97.4560
RA_OF_ASC_NODE = 26.0381
ARG_OF_PERICENTER = 118.3227
MEAN_ANOMALY   = 241.8873

EPHEMERIS_TYPE = 0
CLASSIFICATION_TYPE = U
NORAD_CAT_ID   = 67398
ELEMENT_SET_NO = 999
REV_AT_EPOCH   = 201
BSTAR          = .75280858E-3
MEAN_MOTION_DOT = .15193E-3
MEAN_MOTION_DDOT = 0

CCSDS_OMM_VERS = 2.0
CREATION_DATE  = 
ORIGINATOR     = 

OBJECT_NAME    = TWILIGHT AN
OBJECT_ID      = 2026-004AN
CENTER_NAME    = EARTH
REF_FRAME      = TEME
TIME_SYSTEM    = UTC
MEAN_ELEMENT_THEORY = SGP/SGP4

EPOCH          = 2026-01-24T22:20:36.045600
MEAN_MOTION    = 15.17962901
ECCENTRICITY   = .00092965
INCLINATION    = 97.4550
RA_OF_ASC_NODE = 26.1029
ARG_OF_PERICENTER = 118.5442
MEAN_ANOMALY   = 241.6729

EPHEMERIS_TYPE = 0
CLASSIFICATION_TYPE = U
NORAD_CAT_ID   = 67399
ELEMENT_SET_NO = 999
REV_AT_EPOCH   = 202
BSTAR          = .47859143E-3
MEAN_MOTION_DOT = .9669E-4
MEAN_MOTION_DDOT = 0

CCSDS_OMM_VERS = 2.0
CREATION_DATE  = 
ORIGINATOR     = 

OBJECT_NAME    = TWILIGHT AP
OBJECT_ID      = 2026-004AP
CENTER_NAME    = EARTH
REF_FRAME      = TEME
TIME_SYSTEM    = UTC
MEAN_ELEMENT_THEORY = SGP/SGP4

EPOCH          = 2026-01-24T22:16:36.975936
MEAN_MOTION    = 15.18265152
ECCENTRICITY   = .00107827
INCLINATION    = 97.4549
RA_OF_ASC_NODE = 26.1061
ARG_OF_PERICENTER = 119.5646
MEAN_ANOMALY   = 240.6664

EPHEMERIS_TYPE = 0
CLASSIFICATION_TYPE = U
NORAD_CAT_ID   = 67400
ELEMENT_SET_NO = 999
REV_AT_EPOCH   = 202
BSTAR          = .33881208E-3
MEAN_MOTION_DOT = .6885E-4
MEAN_MOTION_DDOT = 0

CCSDS_OMM_VERS = 2.0
CREATION_DATE  = 
ORIGINATOR     = 

OBJECT_NAME    = TWILIGHT AQ
OBJECT_ID      = 2026-004AQ
CENTER_NAME    = EARTH
REF_FRAME      = TEME
TIME_SYSTEM    = UTC
MEAN_ELEMENT_THEORY = SGP/SGP4

EPOCH          = 2026-01-24T22:15:18.211968
MEAN_MOTION    = 15.18370770
ECCENTRICITY   = .00115281
INCLINATION    = 97.4491
RA_OF_ASC_NODE = 26.0973
ARG_OF_PERICENTER = 115.1106
MEAN_ANOMALY   = 245.1325

EPHEMERIS_TYPE = 0
CLASSIFICATION_TYPE = U
NORAD_CAT_ID   = 67401
ELEMENT_SET_NO = 999
REV_AT_EPOCH   = 202
BSTAR          = .47290088E-3
MEAN_MOTION_DOT = .9672E-4
MEAN_MOTION_DDOT = 0

CCSDS_OMM_VERS = 2.0
CREATION_DATE  = 
ORIGINATOR     = 

OBJECT_NAME    = TWILIGHT AR
OBJECT_ID      = 2026-004AR
CENTER_NAME    = EARTH
REF_FRAME      = TEME
TIME_SYSTEM    = UTC
MEAN_ELEMENT_THEORY = SGP/SGP4

EPOCH          = 2026-01-24T19:25:10.458912
MEAN_MOTION    = 15.16791128
ECCENTRICITY   = .00048316
INCLINATION    = 97.4551
RA_OF_ASC_NODE = 25.9606
ARG_OF_PERICENTER = 96.8621
MEAN_ANOMALY   = 263.3162

EPHEMERIS_TYPE = 0
CLASSIFICATION_TYPE = U
NORAD_CAT_ID   = 67402
ELEMENT_SET_NO = 999
REV_AT_EPOCH   = 199
BSTAR          = .42106426E-3
MEAN_MOTION_DOT = .821E-4
MEAN_MOTION_DDOT = 0

CCSDS_OMM_VERS = 2.0
CREATION_DATE  = 
ORIGINATOR     = 

OBJECT_NAME    = SHIJIAN-29B (SJ-29B)
OBJECT_ID      = 2025-315C
CENTER_NAME    = EARTH
REF_FRAME      = TEME
TIME_SYSTEM    = UTC
MEAN_ELEMENT_THEORY = SGP/SGP4

EPOCH          = 2026-01-24T20:57:47.674080
MEAN_MOTION    = 1.00273555
ECCENTRICITY   = .00011579
INCLINATION    = 3.0335
RA_OF_ASC_NODE = 98.8922
ARG_OF_PERICENTER = 319.4293
MEAN_ANOMALY   = 93.3882

EPHEMERIS_TYPE = 0
CLASSIFICATION_TYPE = U
NORAD_CAT_ID   = 67403
ELEMENT_SET_NO = 999
REV_AT_EPOCH   = 25
BSTAR          = 0
MEAN_MOTION_DOT = -.54E-6
MEAN_MOTION_DDOT = 0

