TWILIGHT AF             
1 67392U 26004AF  26024.93601401  .00015894  00000+0  79352-3 0  9992
2 67392  97.4499  26.0865 0007396 105.4445 254.7606 15.17551314  2023
TWILIGHT AG             
1 67393U 26004AG  26024.73719669  .00017436  00000+0  86616-3 0  9992
2 67393  97.4527  25.8996 0007477 110.9682 249.2353 15.17706881  1996
TWILIGHT AH             
1 67394U 26004AH  26024.92918546  .00007954  00000+0  39220-3 0  9992
2 67394  97.4467  26.0900 0010724 111.6731 248.5646 15.18144200  2024
TWILIGHT AJ             
1 67395U 26004AJ  26024.93045278  .00003921  00000+0  43547-3 0  9994
2 67395  97.8005  25.8766 0004040 230.9385 129.1472 14.87767714  1978
TWILIGHT AK             
1 67396U 26004AK  26024.93273943  .00008245  00000+0  41109-3 0  9993
2 67396  97.4504  26.0923 0008815 111.0877 249.1300 15.17757550  2027
TWILIGHT AL             
1 67397U 26004AL  26024.93443390  .00013084  00000+0  65306-3 0  9991
2 67397  97.4526  26.0942 0007751 111.5147 248.6913 15.17603415  2020
TWILIGHT AM             
1 67398U 26004AM  26024.86641935  .00015193  00000+0  75281-3 0  9995
2 67398  97.4560  26.0381 0008574 118.3227 241.8873 15.17818589  2013
TWILIGHT AN             
1 67399U 26004AN  26024.93097275  .00009669  00000+0  47859-3 0  9997
2 67399  97.4550  26.1029 0009296 118.5442 241.6729 15.17962901  2023
TWILIGHT AP             
1 67400U 26004AP  26024.92820574  .00006885  00000+0  33881-3 0  9992
2 67400  97.4549  26.1061 0010782 119.5646 240.6664 15.18265152  2021
TWILIGHT AQ             
1 67401U 26004AQ  26024.92729412  .00009672  00000+0  47290-3 0  9998
2 67401  97.4491  26.0973 0011528 115.1106 245.1325 15.18370770  2028
TWILIGHT AR             
1 67402U 26004AR  26024.80914883  .00008210  00000+0  42106-3 0  9992
2 67402  97.4551  25.9606 0004831  96.8621 263.3162 15.16791128  1991
SHIJIAN-29B (SJ-29B)    
1 67403U 25315C   26024.87346845 -.00000054  00000+0  00000+0 0  9993
2 67403   3.0335  98.8922 0001157 319.4293  93.3882  1.00273555   257
